OBJECT_NAME,OBJECT_ID,EPOCH,MEAN_MOTION,ECCENTRICITY,INCLINATION,RA_OF_ASC_NODE,ARG_OF_PERICENTER,MEAN_ANOMALY,EPHEMERIS_TYPE,CLASSIFICATION_TYPE,NORAD_CAT_ID,ELEMENT_SET_NO,REV_AT_EPOCH,BSTAR,MEAN_MOTION_DOT,MEAN_MOTION_DDOT
CUBESAT XI-IV (CO-57),2003-031J,2026-06-13T13:57:36.858240,14.23619125,.0008793,98.6767,172.9014,208.1063,151.9642,0,U,27848,999,19086,.12199E-3,.234E-5,0
CUBESAT XI-V,2005-043F,2026-06-13T09:27:00.601344,14.72622172,.0013416,98.2979,319.9359,213.2696,146.7669,0,U,28895,999,10119,.21486221E-3,.1317E-4,0
SWISSCUBE,2009-051B,2026-06-13T16:18:17.233632,14.62475781,.0005756,98.4039,72.5065,215.4372,144.6447,0,U,35932,999,88864,.1947E-3,.937E-5,0
BEESAT-1,2009-051C,2026-06-13T16:29:14.836128,14.61715545,.0004055,98.3968,72.1570,230.6846,129.3995,0,U,35933,999,88867,.167E-3,.783E-5,0
ITUPSAT1,2009-051E,2026-06-13T16:11:43.005120,14.60435999,.0006157,98.4053,71.3404,247.1048,112.9502,0,U,35935,999,88822,.15577E-3,.706E-5,0
TISAT 1,2010-035E,2026-06-13T18:50:45.378816,15.31591266,.0000925,98.0709,111.0328,172.0617,188.0637,0,U,36799,999,86718,.70389E-3,.21423E-3,0
AEROCUBE 4.5A,2012-048K,2026-06-13T18:37:28.598016,15.93464076,.0019794,64.6249,39.3549,221.0404,138.9269,0,U,38767,999,37211,.10945E-2,.400652E-2,.6956E-4
STRAND-1,2013-009E,2026-06-13T18:48:38.805408,14.37161544,.0007578,98.3921,345.1020,236.8114,123.2347,0,U,39090,999,69657,.1024E-3,.262E-5,0
NEE-01 PEGASO,2013-018B,2026-06-13T09:07:22.348992,14.93643611,.0012775,98.1215,308.4049,171.4218,188.7221,0,U,39151,999,71013,.20384076E-3,.2095E-4,0
POPACS 2,2013-055E,2026-06-13T16:29:21.150240,14.91130310,.0416895,80.9899,148.1985,205.0173,153.0328,0,U,39269,999,66269,.23173E-3,.1365E-3,0
POPACS 3,2013-055F,2026-06-13T11:27:38.048544,14.56060284,.05524937,81.0022,233.2084,81.2860,285.0480,0,U,39270,999,63801,.23442264E-3,.9975E-4,0
CUBEBUG-2 (LO-74),2013-066AA,2026-06-13T20:20:52.473120,14.93736485,.0058639,97.8902,113.8118,39.7873,320.7624,0,U,39440,999,67649,.42317E-3,.4574E-4,0
NEE-02 KRYSAOR,2013-066AB,2026-06-13T07:19:40.052352,14.86602186,.00677256,97.8891,103.5477,82.6389,278.2517,0,U,39441,999,67562,.26596765E-3,.2401E-4,0
FUNCUBE-1 (AO-73),2013-066AE,2026-06-13T20:59:27.159360,15.09452478,.0035377,97.8267,136.2511,212.6416,147.2626,0,U,39444,999,67916,.45803E-3,.7372E-4,0
UWE-3,2013-066AG,2026-06-13T19:21:45.291744,14.96999955,.0048115,97.8688,120.8577,332.4032,27.4636,0,U,39446,999,67707,.38955E-3,.4526E-4,0
DUCHIFAT-1,2014-033M,2026-06-13T16:41:08.119104,15.63932661,.0003523,98.0473,223.3664,119.5558,240.6051,0,U,40021,999,65520,.11045E-2,.104898E-2,0
NANOSATC-BR1,2014-033Q,2026-06-13T00:33:57.579840,15.31330706,.0004015,98.0725,196.0424,173.7192,186.4098,0,U,40024,999,65334,.59502601E-3,.17945E-3,0
QB50P1,2014-033R,2026-06-13T20:30:47.534112,15.18214076,.0007543,98.0960,175.7668,228.5229,131.5356,0,U,40025,999,65252,.42732E-3,.8675E-4,0
