CUBESAT XI-IV (CO-57)   
1 27848U 03031J   26164.58167660  .00000234  00000+0  12199-3 0  9997
2 27848  98.6767 172.9014 0008793 208.1063 151.9642 14.23619125190861
CUBESAT XI-V            
1 28895U 05043F   26164.39375696  .00001317  00000+0  21486-3 0  9996
2 28895  98.2979 319.9359 0013416 213.2696 146.7669 14.72622172101196
SWISSCUBE               
1 35932U 09051B   26164.67936614  .00000937  00000+0  19470-3 0  9990
2 35932  98.4039  72.5065 0005755 215.4372 144.6447 14.62475781888647
BEESAT-1                
1 35933U 09051C   26164.68697727  .00000783  00000+0  16700-3 0  9993
2 35933  98.3968  72.1570 0004054 230.6846 129.3995 14.61715545888676
ITUPSAT1                
1 35935U 09051E   26164.67480330  .00000706  00000+0  15577-3 0  9990
2 35935  98.4053  71.3404 0006156 247.1048 112.9502 14.60435999888227
TISAT 1                 
1 36799U 10035E   26164.78524745  .00021423  00000+0  70389-3 0  9995
2 36799  98.0709 111.0328 0000924 172.0617 188.0637 15.31591266867186
AEROCUBE 4.5A           
1 38767U 12048K   26164.77602545  .00400652  69560-4  10945-2 0  9999
2 38767  64.6249  39.3549 0019794 221.0404 138.9269 15.93464076372117
STRAND-1                
1 39090U 13009E   26164.78378247  .00000262  00000+0  10240-3 0  9998
2 39090  98.3921 345.1020 0007577 236.8114 123.2347 14.37161544696572
NEE-01 PEGASO           
1 39151U 13018B   26164.38011978  .00002095  00000+0  20384-3 0  9993
2 39151  98.1215 308.4049 0012775 171.4218 188.7221 14.93643611710130
POPACS 2                
1 39269U 13055E   26164.68705035  .00013650  00000+0  23173-3 0  9999
2 39269  80.9899 148.1985 0416895 205.0173 153.0328 14.91130310662695
POPACS 3                
1 39270U 13055F   26164.47752371  .00009975  00000+0  23442-3 0  9997
2 39270  81.0022 233.2084 0552493  81.2860 285.0480 14.56060284638012
CUBEBUG-2 (LO-74)       
1 39440U 13066AA  26164.84782956  .00004574  00000+0  42317-3 0  9993
2 39440  97.8902 113.8118 0058639  39.7873 320.7624 14.93736485676494
NEE-02 KRYSAOR          
1 39441U 13066AB  26164.30532468  .00002401  00000+0  26597-3 0  9995
2 39441  97.8891 103.5477 0067725  82.6389 278.2517 14.86602186675625
FUNCUBE-1 (AO-73)       
1 39444U 13066AE  26164.87461990  .00007372  00000+0  45803-3 0  9994
2 39444  97.8267 136.2511 0035377 212.6416 147.2626 15.09452478679163
UWE-3                   
1 39446U 13066AG  26164.80677422  .00004526  00000+0  38955-3 0  9996
2 39446  97.8688 120.8577 0048115 332.4032  27.4636 14.96999955677071
DUCHIFAT-1              
1 40021U 14033M   26164.69523286  .00104898  00000+0  11045-2 0  9990
2 40021  98.0473 223.3664 0003522 119.5558 240.6051 15.63932661655200
NANOSATC-BR1            
1 40024U 14033Q   26164.02358310  .00017945  00000+0  59503-3 0  9992
2 40024  98.0725 196.0424 0004015 173.7192 186.4098 15.31330706653345
QB50P1                  
1 40025U 14033R   26164.85471683  .00008675  00000+0  42732-3 0  9999
2 40025  98.0960 175.7668 0007543 228.5229 131.5356 15.18214076652523
